EPOCH,NORAD_CAT_ID,MEAN_MOTION,ECCENTRICITY,INCLINATION,RA_OF_ASC_NODE,ARG_OF_PERICENTER,MEAN_ANOMALY,MEAN_MOTION_DOT,BSTAR,TLE_LINE1,TLE_LINE2
2022-03-25 14:00:01.000224,50803,15.39241911,0.00022860,53.2175,178.4952,25.5162,84.7301,-0.00720931,-0.01974700000000,1 50803U 22001A   22084.58334491 -.00720931  00000-0 -19747-1 0  9997,2 50803  53.2175 178.4952 0002286  25.5162  84.7301 15.39241911  3660
2022-03-25 22:00:01.999584,50803,15.38731243,0.00015890,53.2173,176.9281,47.2037,110.9197,-0.00719588,-0.02004500000000,1 50803U 22001A   22084.91668981 -.00719588  00000-0 -20045-1 0  9997,2 50803  53.2173 176.9281 0001589  47.2037 110.9197 15.38731243  3670
2022-03-26 06:00:00.999648,50803,15.38220874,0.00018110,53.2175,175.3627,41.8284,163.4301,-0.00717697,-0.02032500000000,1 50803U 22001A   22085.25001157 -.00717697  00000-0 -20325-1 0  9991,2 50803  53.2175 175.3627 0001811  41.8284 163.4301 15.38220874 13585
2022-03-26 14:00:01.000224,50803,15.37710597,0.00019020,53.2174,173.8011,38.6156,213.2287,-0.00718213,-0.02068300000000,1 50803U 22001A   22085.58334491 -.00718213  00000-0 -20683-1 0  9999,2 50803  53.2174 173.8011 0001902  38.6156 213.2287 15.37710597  3645
2022-03-26 22:00:00.999936,50803,15.37202694,0.00015320,53.2173,172.2377,47.3825,250.4355,-0.00722088,-0.02115300000000,1 50803U 22001A   22085.91667824 -.00722088  00000-0 -21153-1 0  9993,2 50803  53.2173 172.2377 0001532  47.3825 250.4355 15.37202694  3666
2022-03-27 06:00:00.999648,50803,15.36690167,0.00016880,53.2176,170.6760,35.7314,307.4484,-0.00716534,-0.02132900000000,1 50803U 22001A   22086.25001157 -.00716534  00000-0 -21329-1 0  9996,2 50803  53.2176 170.6760 0001688  35.7314 307.4484 15.36690167 13744
2022-03-27 14:00:01.000224,50803,15.36182320,0.00017530,53.2174,169.1181,35.0052,352.9210,-0.00721129,-0.02183300000000,1 50803U 22001A   22086.58334491 -.00721129  00000-0 -21833-1 0  9998,2 50803  53.2174 169.1181 0001753  35.0052 352.9210 15.36182320  3666
2022-03-27 22:00:01.999584,50803,15.35671150,0.00014720,53.2174,167.5582,44.9820,27.1446,-0.00718851,-0.02212200000000,1 50803U 22001A   22086.91668981 -.00718851  00000-0 -22122-1 0  9999,2 50803  53.2174 167.5582 0001472  44.9820  27.1446 15.35671150  3679
2022-03-28 06:00:00.999648,50803,15.35160150,0.00016970,53.2175,166.0001,40.9396,74.6462,-0.00716638,-0.02241300000000,1 50803U 22001A   22087.25001157 -.00716638  00000-0 -22413-1 0  9997,2 50803  53.2175 166.0001 0001697  40.9396  74.6462 15.35160150 13896
2022-03-28 14:00:01.999872,50803,15.34650089,0.00017500,53.2174,164.4458,44.1386,114.4197,-0.00716883,-0.02279100000000,1 50803U 22001A   22087.58335648 -.00716883  00000-0 -22791-1 0  9999,2 50803  53.2174 164.4458 0001750  44.1386 114.4197 15.34650089  3664
2022-03-28 22:00:00.999936,50803,15.34142109,0.00017160,53.2174,162.8894,44.1214,156.6699,-0.00719988,-0.02327300000000,1 50803U 22001A   22087.91667824 -.00719988  00000-0 -23273-1 0  9995,2 50803  53.2174 162.8894 0001716  44.1214 156.6699 15.34142109  3655
2022-03-29 04:00:00.999936,50803,15.33758581,0.00018770,53.2174,161.7233,36.6147,105.4978,-0.00718106,-0.02349200000000,1 50803U 22001A   22088.16667824 -.00718106  00000-0 -23492-1 0  9997,2 50803  53.2174 161.7233 0001877  36.6147 105.4978 15.33758581 14031
2022-03-29 14:00:01.000224,50803,15.33014417,0.00018830,53.2174,159.7829,45.5183,238.0952,-0.00583552,-0.01947700000000,1 50803U 22001A   22088.58334491 -.00583552  00000-0 -19477-1 0  9997,2 50803  53.2174 159.7829 0001883  45.5183 238.0952 15.33014417  3626
2022-03-29 22:00:00.999936,50803,15.32535794,0.00016850,53.2176,158.2301,33.7077,290.3411,-0.00621609,-0.02091000000000,1 50803U 22001A   22088.91667824 -.00621609  00000-0 -20910-1 0  9993,2 50803  53.2176 158.2301 0001685  33.7077 290.3411 15.32535794  3624
2022-03-30 02:00:01.000224,50803,15.32357295,0.00018590,53.2174,157.4554,36.1110,127.8941,-0.00720120,-0.02463400000000,1 50803U 22001A   22089.08334491 -.00720120  00000-0 -24634-1 0  9998,2 50803  53.2174 157.4554 0001859  36.1110 127.8941 15.32357295 14173
2022-03-30 14:00:01.999872,50803,15.31528230,0.00016610,53.2177,155.1326,39.0133,4.1661,-0.00631526,-0.02195300000000,1 50803U 22001A   22089.58335648 -.00631526  00000-0 -21953-1 0  9990,2 50803  53.2177 155.1326 0001661  39.0133   4.1661 15.31528230  3639
2022-03-30 22:00:00.999936,50803,15.31080401,0.00016790,53.2176,153.5847,37.8870,43.8179,-0.00716923,-0.02552100000000,1 50803U 22001A   22089.91667824 -.00716923  00000-0 -25521-1 0  9991,2 50803  53.2176 153.5847 0001679  37.8870  43.8179 15.31080401  3683
2022-03-31 04:00:00.999936,50803,15.30696852,0.00018210,53.2176,152.4242,33.2198,347.0485,-0.00714428,-0.02573100000000,1 50803U 22001A   22090.16667824 -.00714428  00000-0 -25731-1 0  9991,2 50803  53.2176 152.4242 0001821  33.2198 347.0485 15.30696852 14348
2022-03-31 14:00:01.000224,50803,15.30057310,0.00021770,53.2176,150.4944,30.2487,126.8583,-0.00711679,-0.02613800000000,1 50803U 22001A   22090.58334491 -.00711679  00000-0 -26138-1 0  9995,2 50803  53.2176 150.4944 0002177  30.2487 126.8583 15.30057310  3652
2022-03-31 22:00:00.999936,50803,15.29454293,0.00018970,53.2177,148.9470,29.6871,164.2588,-0.00596418,-0.02202800000000,1 50803U 22001A   22090.91667824 -.00596418  00000-0 -22028-1 0  9997,2 50803  53.2177 148.9470 0001897  29.6871 164.2588 15.29454293  3623
2022-04-01 06:00:00.999648,50803,15.29040148,0.00019900,53.2177,147.4058,36.3539,193.7035,-0.00715655,-0.02714000000000,1 50803U 22001A   22091.25001157 -.00715655  00000-0 -27140-1 0  9992,2 50803  53.2177 147.4058 0001990  36.3539 193.7035 15.29040148 14502
2022-04-01 14:00:01.000224,50803,15.28527862,0.00018830,53.2176,145.8654,38.2554,227.3582,-0.00711666,-0.02740700000000,1 50803U 22001A   22091.58334491 -.00711666  00000-0 -27407-1 0  9992,2 50803  53.2176 145.8654 0001883  38.2554 227.3582 15.28527862  3684
2022-04-01 22:00:00.999936,50803,15.28020745,0.00016530,53.2177,144.3231,41.5557,259.0014,-0.00724879,-0.02804700000000,1 50803U 22001A   22091.91667824 -.00724879  00000-0 -28047-1 0  9999,2 50803  53.2177 144.3231 0001653  41.5557 259.0014 15.28020745  3641
2022-04-02 04:00:00.999936,50803,15.27638400,0.00017810,53.2176,143.1684,44.2053,192.1570,-0.00724231,-0.02835000000000,1 50803U 22001A   22092.16667824 -.00724231  00000-0 -28350-1 0  9996,2 50803  53.2176 143.1684 0001781  44.2053 192.1570 15.27638400 14640
2022-04-02 22:00:01.999584,50803,15.26395902,0.00018190,53.2175,139.7071,27.9956,13.8304,-0.00590870,-0.02395500000000,1 50803U 22001A   22092.91668981 -.00590870  00000-0 -23955-1 0  9990,2 50803  53.2175 139.7071 0001819  27.9956  13.8304 15.26395902  3628
2022-04-03 04:00:00.999936,50803,15.26108557,0.00018000,53.2178,138.5566,35.7904,300.3467,-0.00724470,-0.02971400000000,1 50803U 22001A   22093.16667824 -.00724470  00000-0 -29714-1 0  9997,2 50803  53.2178 138.5566 0001800  35.7904 300.3467 15.26108557 14801
2022-04-03 22:00:00.999936,50803,15.24959146,0.00018590,53.2175,135.1049,36.1264,101.2233,-0.00721858,-0.03064600000000,1 50803U 22001A   22093.91667824 -.00721858  00000-0 -30646-1 0  9993,2 50803  53.2175 135.1049 0001859  36.1264 101.2233 15.24959146  3651
2022-04-04 04:00:00.999936,50803,15.24578500,0.00020160,53.2176,133.9557,31.0827,39.3141,-0.00724656,-0.03112700000000,1 50803U 22001A   22094.16667824 -.00724656  00000-0 -31127-1 0  9995,2 50803  53.2176 133.9557 0002016  31.0827  39.3141 15.24578500 14952
2022-04-04 14:00:01.000224,50803,15.23937474,0.00017390,53.2173,132.0434,45.5996,152.4447,-0.00718614,-0.03145000000000,1 50803U 22001A   22094.58334491 -.00718614  00000-0 -31450-1 0  9998,2 50803  53.2173 132.0434 0001739  45.5996 152.4447 15.23937474  3672
2022-04-04 22:00:00.999936,50803,15.23428943,0.00018090,53.2174,130.5117,41.2584,186.2148,-0.00720892,-0.03204000000000,1 50803U 22001A   22094.91667824 -.00720892  00000-0 -32040-1 0  9991,2 50803  53.2174 130.5117 0001809  41.2584 186.2148 15.23428943  3666
2022-04-05 06:00:00.999648,50803,15.22919771,0.00018400,53.2176,128.9842,41.5558,214.7321,-0.00722505,-0.03260800000000,1 50803U 22001A   22095.25001157 -.00722505  00000-0 -32608-1 0  9993,2 50803  53.2176 128.9842 0001840  41.5558 214.7321 15.22919771 15119
2022-04-05 14:00:01.999872,50803,15.22409601,0.00016350,53.2173,127.4575,46.1319,238.4215,-0.00721556,-0.03306100000000,1 50803U 22001A   22095.58335648 -.00721556  00000-0 -33061-1 0  9993,2 50803  53.2173 127.4575 0001635  46.1319 238.4215 15.22409601  3670
2022-04-05 22:00:00.999936,50803,15.21898371,0.00016800,53.2174,125.9296,40.6906,271.3911,-0.00719959,-0.03348600000000,1 50803U 22001A   22095.91667824 -.00719959  00000-0 -33486-1 0  9999,2 50803  53.2174 125.9296 0001680  40.6906 271.3911 15.21898371  3668
2022-04-06 06:00:02.000160,50803,15.21312142,0.00015280,53.2171,124.4034,47.8043,291.3579,-0.00608884,-0.02880500000000,1 50803U 22001A   22096.25002315 -.00608884  00000-0 -28805-1 0  9998,2 50803  53.2171 124.4034 0001528  47.8043 291.3579 15.21312142 15270
2022-04-06 14:00:01.000224,50803,15.20880567,0.00015850,53.2173,122.8825,41.8517,323.5694,-0.00722810,-0.03465400000000,1 50803U 22001A   22096.58334491 -.00722810  00000-0 -34654-1 0  9992,2 50803  53.2173 122.8825 0001585  41.8517 323.5694 15.20880567 15327
2022-04-06 22:00:00.999936,50803,15.20368416,0.00015680,53.2174,121.3581,41.1327,350.0423,-0.00720192,-0.03504300000000,1 50803U 22001A   22096.91667824 -.00720192  00000-0 -35043-1 0  9992,2 50803  53.2174 121.3581 0001568  41.1327 350.0423 15.20368416  3667
2022-04-07 14:00:01.000224,50803,15.19349779,0.00016120,53.2172,118.3182,43.1621,37.6758,-0.00721391,-0.03616700000000,1 50803U 22001A   22097.58334491 -.00721391  00000-0 -36167-1 0  9997,2 50803  53.2172 118.3182 0001612  43.1621  37.6758 15.19349779  3654
